TRANSIT 16 [?]          
1 02807U 67048A   23087.86044244  .00000237  00000+0  35372-3 0  9998
2 02807  89.6678  26.7047 0022298  96.9279 322.6740 13.50377417749152
TRANSIT 17 [?]          
1 02965U 67092A   23088.05036476  .00000174  00000+0  24271-3 0  9998
2 02965  89.2240 101.3503 0046209 227.8851 139.6239 13.53088753737548
TRANSIT 18 [?]          
1 03133U 68012A   23087.92519979  .00000210  00000+0  30358-3 0  9992
2 03133  90.0058 271.7812 0075623 156.1712 320.8922 13.51217494435508
NNSS 19 [?]             
1 04507U 70067A   23087.84526786  .00000260  00000+0  35755-3 0  9997
2 04507  89.9376 237.3265 0170585 280.6653  77.5329 13.50898752588556
NNSS O-20 [?]           
1 06909U 73081A   23087.88432242  .00000419  00000+0  41993-3 0  9998
2 06909  89.8172 272.0699 0156735 164.3661 196.2424 13.70789909667976
TRANSAT [?]             
1 10457U 77106A   23087.54494328  .00000119  00000+0  17349-3 0  9994
2 10457  89.6640 113.2486 0025661 164.0366 350.2815 13.48720536233958
NOVA I [?]              
1 12458U 81044A   23087.95761654  .00000070  00000+0  14412-3 0  9991
2 12458  89.8732 104.4728 0013113 318.9472 107.9749 13.23096771 21243
NOVA 3 [?]              
1 15362U 84110A   23087.88536102  .00000126  00000+0  27870-3 0  9999
2 15362  90.1024  69.7088 0031970 174.8842 244.4369 13.22866784856117
OSCAR 30 [?]            
1 15935U 85066A   23088.50493865  .00000206  00000+0  35826-3 0  9993
2 15935  90.1750  82.8776 0168466 355.1521 116.4741 13.35806788832521
OSCAR 24 [?]            
1 15936U 85066B   23088.53652787  .00000193  00000+0  33421-3 0  9991
2 15936  90.1747  74.7668 0169327   0.9605 116.7187 13.35665228834591
POLAR BEAR [?]          
1 17070U 86088A   23087.92073847  .00000202  00000+0  19986-3 0  9994
2 17070  89.5806 224.7788 0037931 223.6793 251.5753 13.74927315823762
OSCAR 27 [?]            
1 18361U 87080A   23088.45667994  .00000185  00000+0  29217-3 0  9990
2 18361  90.3438  43.7744 0104146 176.4802 183.7102 13.44615854742861
OSCAR 29 [?]            
1 18362U 87080B   23087.92140323  .00000147  00000+0  23235-3 0  9996
2 18362  90.3449  44.1127 0105089 199.0128 223.3477 13.44196175742117
OSCAR 23 [?]            
1 19070U 88033A   23087.77582711  .00000155  00000+0  29370-3 0  9991
2 19070  90.3281 345.8170 0191471  53.5352  11.9998 13.27563122691179
OSCAR 32 [?]            
1 19071U 88033B   23088.26755556  .00000150  00000+0  28459-3 0  9998
2 19071  90.3283 345.9244 0189575  39.9820  71.4304 13.27741571691768
NOVA 11 [?]             
1 19223U 88052A   23087.96339361  .00000098  00000+0  21278-3 0  9999
2 19223  89.9725  80.1615 0029381 218.7153 194.2600 13.22777272678890
OSCAR 25 [?]            
1 19419U 88074A   23088.41003024  .00000169  00000+0  27614-3 0  9994
2 19419  90.0154  18.0930 0095712 187.2640 297.5613 13.42346501693930
OSCAR 31 [?]            
1 19420U 88074B   23087.81141750  .00000137  00000+0  22078-3 0  9992
2 19420  90.0165  18.2996 0094071 183.0705 231.3247 13.42350657693690
